{
  "norad_id": 67169,
  "name": "STARLINK-35839",
  "history": [
    {
      "epoch": "2026-03-28T17:42:54.299808",
      "apogee_km": 484.183973194753,
      "perigee_km": 481.78834343279686,
      "latitude_deg": 34.627470119806695,
      "longitude_deg": -112.23966688010842,
      "semi_major_axis_km": 6861.123158313775,
      "eccentricity": 0.00017458,
      "inclination_deg": 42.9991,
      "raan_deg": 203.5481,
      "arg_perigee_deg": 280.9089,
      "mean_anomaly_deg": 79.1566,
      "mean_motion_rev_day": 15.27601019
    }
  ]
}