{"fetched_at":"2026-03-29T16:36:15Z","count":15609,"tles":[{"name":"STARLINK-35839","line1":"1 67169U 25303G   26087.73812847  .00038047  00000+0  13841-2 0  9995","line2":"2 67169  42.9991 203.5481 0001745 280.9089  79.1566 15.27601019 15643","category":"Starlink"}]}